GLOBALSTAR M075         
1 37192U 10054E   25057.29973642 -.00000097  00000+0  37980-4 0  9990
2 37192  51.9939 159.1628 0000773 117.5523 275.9205 12.62273332661849
GLOBALSTAR M073         
1 37193U 10054F   25059.46515138 -.00000084  00000+0  10810-3 0  9992
2 37193  52.0060  66.3072 0000490  99.6136  56.3469 12.62263842664150
GLOBALSTAR M083         
1 37739U 11033A   25059.39798848 -.00000090  00000+0  76229-4 0  9993
2 37739  51.9883  15.3895 0000471  56.0062  96.2692 12.62259690633476
GLOBALSTAR M088         
1 37740U 11033B   25059.05508575 -.00000061  00000+0  23898-3 0  9995
2 37740  51.9726 282.0206 0000812  74.0287  79.5126 12.62263603628908
GLOBALSTAR M091         
1 37741U 11033C   25058.90784406 -.00000093  00000+0  59074-4 0  9999
2 37741  51.9981 245.8288 0000857  71.1672  72.1119 12.62265361629381
GLOBALSTAR M085         
1 37742U 11033D   25059.42619542 -.00000105  00000+0 -73829-5 0  9996
2 37742  51.9855 195.3834 0000803  89.4845 310.4207 12.62265751630452
GLOBALSTAR M081         
1 37743U 11033E   25059.53942269 -.00000110  00000+0 -34109-4 0  9997
2 37743  51.9943 197.7573 0000994  92.6990 342.6365 12.62261168630501
GLOBALSTAR M089         
1 37744U 11033F   25059.42337233 -.00000074  00000+0  16735-3 0  9997
2 37744  51.9923 152.3606 0000924 123.5200 323.7882 12.62266602631205
